[{"OBJECT_NAME":"STARLINK-36817","OBJECT_ID":"2026-035D","EPOCH":"2026-03-20T22:00:01.999584","MEAN_MOTION":15.75218293,"ECCENTRICITY":0.00015066,"INCLINATION":97.2859,"RA_OF_ASC_NODE":12.9012,"ARG_OF_PERICENTER":86.5905,"MEAN_ANOMALY":249.1174,"EPHEMERIS_TYPE":0,"CLASSIFICATION_TYPE":"U","NORAD_CAT_ID":67882,"ELEMENT_SET_NO":999,"REV_AT_EPOCH":556,"BSTAR":-0.00043561198,"MEAN_MOTION_DOT":-0.00064695,"MEAN_MOTION_DDOT":0},{"OBJECT_NAME":"STARLINK-36856","OBJECT_ID":"2026-035E","EPOCH":"2026-03-20T22:00:01.999584","MEAN_MOTION":15.75187824,"ECCENTRICITY":0.00012393,"INCLINATION":97.2861,"RA_OF_ASC_NODE":12.8967,"ARG_OF_PERICENTER":92.3633,"MEAN_ANOMALY":227.3858,"EPHEMERIS_TYPE":0,"CLASSIFICATION_TYPE":"U","NORAD_CAT_ID":67883,"ELEMENT_SET_NO":999,"REV_AT_EPOCH":556,"BSTAR":-0.00027630055,"MEAN_MOTION_DOT":-0.00041139,"MEAN_MOTION_DDOT":0},{"OBJECT_NAME":"STARLINK-36842","OBJECT_ID":"2026-035F","EPOCH":"2026-03-20T17:55:10.410528","MEAN_MOTION":15.75378467,"ECCENTRICITY":0.00041399,"INCLINATION":97.2866,"RA_OF_ASC_NODE":12.6823,"ARG_OF_PERICENTER":86.0349,"MEAN_ANOMALY":274.139,"EPHEMERIS_TYPE":0,"CLASSIFICATION_TYPE":"U","NORAD_CAT_ID":67884,"ELEMENT_SET_NO":999,"REV_AT_EPOCH":558,"BSTAR":0.0022600518,"MEAN_MOTION_DOT":0.00354267,"MEAN_MOTION_DDOT":0},{"OBJECT_NAME":"STARLINK-36826","OBJECT_ID":"2026-035G","EPOCH":"2026-03-20T22:00:01.999584","MEAN_MOTION":15.75193288,"ECCENTRICITY":0.00012517,"INCLINATION":97.2868,"RA_OF_ASC_NODE":12.8834,"ARG_OF_PERICENTER":91.6305,"MEAN_ANOMALY":202.1167,"EPHEMERIS_TYPE":0,"CLASSIFICATION_TYPE":"U","NORAD_CAT_ID":67885,"ELEMENT_SET_NO":999,"REV_AT_EPOCH":556,"BSTAR":-0.00036705926,"MEAN_MOTION_DOT":-0.00054538,"MEAN_MOTION_DDOT":0},{"OBJECT_NAME":"STARLINK-36390","OBJECT_ID":"2026-035H","EPOCH":"2026-03-20T13:17:41.701632","MEAN_MOTION":15.75278062,"ECCENTRICITY":0.000229,"INCLINATION":97.2869,"RA_OF_ASC_NODE":12.4843,"ARG_OF_PERICENTER":81.5639,"MEAN_ANOMALY":278.5886,"EPHEMERIS_TYPE":0,"CLASSIFICATION_TYPE":"U","NORAD_CAT_ID":67886,"ELEMENT_SET_NO":999,"REV_AT_EPOCH":555,"BSTAR":0.0018178,"MEAN_MOTION_DOT":0.00281205,"MEAN_MOTION_DDOT":0},{"OBJECT_NAME":"STARLINK-36368","OBJECT_ID":"2026-035J","EPOCH":"2026-03-20T12:47:56.323392","MEAN_MOTION":15.80927912,"ECCENTRICITY":0.00029894,"INCLINATION":97.2893,"RA_OF_ASC_NODE":12.5105,"ARG_OF_PERICENTER":62.2004,"MEAN_ANOMALY":297.9567,"EPHEMERIS_TYPE":0,"CLASSIFICATION_TYPE":"U","NORAD_CAT_ID":67887,"ELEMENT_SET_NO":999,"REV_AT_EPOCH":555,"BSTAR":0.0017053263,"MEAN_MOTION_DOT":0.00341378,"MEAN_MOTION_DDOT":0},{"OBJECT_NAME":"STARLINK-36801","OBJECT_ID":"2026-035K","EPOCH":"2026-03-20T22:00:01.999584","MEAN_MOTION":15.75135914,"ECCENTRICITY":0.000163,"INCLINATION":97.2856,"RA_OF_ASC_NODE":12.9148,"ARG_OF_PERICENTER":115.2383,"MEAN_ANOMALY":256.4828,"EPHEMERIS_TYPE":0,"CLASSIFICATION_TYPE":"U","NORAD_CAT_ID":67888,"ELEMENT_SET_NO":999,"REV_AT_EPOCH":556,"BSTAR":0.00023839813,"MEAN_MOTION_DOT":0.00035494,"MEAN_MOTION_DDOT":0},{"OBJECT_NAME":"STARLINK-36372","OBJECT_ID":"2026-035L","EPOCH":"2026-03-20T22:00:01.999584","MEAN_MOTION":15.7521168,"ECCENTRICITY":0.00014899,"INCLINATION":97.2871,"RA_OF_ASC_NODE":12.9063,"ARG_OF_PERICENTER":111.9673,"MEAN_ANOMALY":239.7822,"EPHEMERIS_TYPE":0,"CLASSIFICATION_TYPE":"U","NORAD_CAT_ID":67889,"ELEMENT_SET_NO":999,"REV_AT_EPOCH":556,"BSTAR":-0.00068903067,"MEAN_MOTION_DOT":-0.00101786,"MEAN_MOTION_DDOT":0},{"OBJECT_NAME":"STARLINK-36363","OBJECT_ID":"2026-035M","EPOCH":"2026-03-20T13:12:36.625824","MEAN_MOTION":15.75250962,"ECCENTRICITY":0.0001634,"INCLINATION":97.2879,"RA_OF_ASC_NODE":12.4895,"ARG_OF_PERICENTER":81.6761,"MEAN_ANOMALY":278.469,"EPHEMERIS_TYPE":0,"CLASSIFICATION_TYPE":"U","NORAD_CAT_ID":67890,"ELEMENT_SET_NO":999,"REV_AT_EPOCH":555,"BSTAR":0.0014011,"MEAN_MOTION_DOT":0.00214759,"MEAN_MOTION_DDOT":0},{"OBJECT_NAME":"STARLINK-36816","OBJECT_ID":"2026-035N","EPOCH":"2026-03-20T14:01:45.836256","MEAN_MOTION":15.80942298,"ECCENTRICITY":0.0001582,"INCLINATION":97.2891,"RA_OF_ASC_NODE":12.5901,"ARG_OF_PERICENTER":115.5265,"MEAN_ANOMALY":244.6167,"EPHEMERIS_TYPE":0,"CLASSIFICATION_TYPE":"U","NORAD_CAT_ID":67891,"ELEMENT_SET_NO":999,"REV_AT_EPOCH":556,"BSTAR":0.0018188,"MEAN_MOTION_DOT":0.00365331,"MEAN_MOTION_DDOT":0},{"OBJECT_NAME":"STARLINK-36813","OBJECT_ID":"2026-035P","EPOCH":"2026-03-20T08:03:38.777472","MEAN_MOTION":15.80832092,"ECCENTRICITY":0.00018067,"INCLINATION":97.2893,"RA_OF_ASC_NODE":12.314,"ARG_OF_PERICENTER":94.61,"MEAN_ANOMALY":265.5375,"EPHEMERIS_TYPE":0,"CLASSIFICATION_TYPE":"U","NORAD_CAT_ID":67892,"ELEMENT_SET_NO":999,"REV_AT_EPOCH":552,"BSTAR":0.0013775205,"MEAN_MOTION_DOT":0.00272326,"MEAN_MOTION_DDOT":0},{"OBJECT_NAME":"STARLINK-36803","OBJECT_ID":"2026-035Q","EPOCH":"2026-03-20T18:48:12.316896","MEAN_MOTION":15.80964437,"ECCENTRICITY":0.000216,"INCLINATION":97.2889,"RA_OF_ASC_NODE":12.7808,"ARG_OF_PERICENTER":95.2426,"MEAN_ANOMALY":264.9089,"EPHEMERIS_TYPE":0,"CLASSIFICATION_TYPE":"U","NORAD_CAT_ID":67893,"ELEMENT_SET_NO":999,"REV_AT_EPOCH":559,"BSTAR":0.0018332174,"MEAN_MOTION_DOT":0.00368753,"MEAN_MOTION_DDOT":0},{"OBJECT_NAME":"STARLINK-36846","OBJECT_ID":"2026-035R","EPOCH":"2026-03-20T17:49:35.061024","MEAN_MOTION":15.753432,"ECCENTRICITY":0.00038,"INCLINATION":97.2886,"RA_OF_ASC_NODE":12.6844,"ARG_OF_PERICENTER":83.0005,"MEAN_ANOMALY":277.1692,"EPHEMERIS_TYPE":0,"CLASSIFICATION_TYPE":"U","NORAD_CAT_ID":67894,"ELEMENT_SET_NO":999,"REV_AT_EPOCH":558,"BSTAR":0.0019503,"MEAN_MOTION_DOT":0.00303401,"MEAN_MOTION_DDOT":0},{"OBJECT_NAME":"STARLINK-36866","OBJECT_ID":"2026-035S","EPOCH":"2026-03-20T08:29:32.168256","MEAN_MOTION":15.75188628,"ECCENTRICITY":0.00025072,"INCLINATION":97.2875,"RA_OF_ASC_NODE":12.2934,"ARG_OF_PERICENTER":100.4227,"MEAN_ANOMALY":259.7321,"EPHEMERIS_TYPE":0,"CLASSIFICATION_TYPE":"U","NORAD_CAT_ID":67895,"ELEMENT_SET_NO":999,"REV_AT_EPOCH":552,"BSTAR":0.0012794846,"MEAN_MOTION_DOT":0.00195138,"MEAN_MOTION_DDOT":0},{"OBJECT_NAME":"STARLINK-36877","OBJECT_ID":"2026-035T","EPOCH":"2026-03-20T08:09:03.248352","MEAN_MOTION":15.80812527,"ECCENTRICITY":0.00012609,"INCLINATION":97.2894,"RA_OF_ASC_NODE":12.3125,"ARG_OF_PERICENTER":91.2304,"MEAN_ANOMALY":268.9109,"EPHEMERIS_TYPE":0,"CLASSIFICATION_TYPE":"U","NORAD_CAT_ID":67896,"ELEMENT_SET_NO":999,"REV_AT_EPOCH":552,"BSTAR":0.0014951121,"MEAN_MOTION_DOT":0.00296137,"MEAN_MOTION_DDOT":0},{"OBJECT_NAME":"STARLINK-36870","OBJECT_ID":"2026-035U","EPOCH":"2026-03-20T21:46:55.064928","MEAN_MOTION":15.78712301,"ECCENTRICITY":0.00050525,"INCLINATION":97.2889,"RA_OF_ASC_NODE":12.9176,"ARG_OF_PERICENTER":319.9858,"MEAN_ANOMALY":40.1037,"EPHEMERIS_TYPE":0,"CLASSIFICATION_TYPE":"U","NORAD_CAT_ID":67897,"ELEMENT_SET_NO":999,"REV_AT_EPOCH":561,"BSTAR":-0.004775499,"MEAN_MOTION_DOT":-0.00763692,"MEAN_MOTION_DDOT":0}]
